LEMUR-2-VALHALLA        
1 58900U 24022B   26200.88519329  .00008840  00000+0  21926-3 0  9999
2 58900  97.4081  51.2869 0008726   7.8665 352.2717 15.40573549137303
LEMUR-2-CAEL            
1 58903U 24022E   26200.34746674  .00009367  00000+0  22211-3 0  9991
2 58903  97.4060  51.7363 0006665 354.0113   6.1053 15.41938041137291
LEMUR-2-JOHNNYTRUONG    
1 59146U 24043BA  26200.38017769  .00024963  00000+0  27854-3 0  9991
2 59146  97.5404 354.1407 0003826  81.8636 278.3056 15.62784650133069
LEMUR-2-TOMATOKECHUP    
1 60471U 24149D   26200.80318013  .00005915  00000+0  16762-3 0  9996
2 60471  97.3786 282.9462 0003431 113.5159 246.6446 15.36638110107171
LEMUR-2-STELLA          
1 60533U 24149BT  26200.77123698  .00005888  00000+0  34273-3 0  9990
2 60533  97.6728 283.3824 0001286 123.0610 237.0744 15.12424995105429
LEMUR-2-MARHISYAM       
1 60536U 24149BW  26200.76394657  .00004919  00000+0  29176-3 0  9997
2 60536  97.6872 283.8566 0002256  62.3623 297.7836 15.11826829105401
LEMUR-2-AHMED-ASRAR     
1 60576U 24149DN  26200.76583082  .00005706  00000+0  32372-3 0  9990
2 60576  97.6999 286.0796 0001624 184.9138 175.2077 15.13363648105498
LEMUR-2-LLOYD           
1 60577U 24149DP  26200.78800228  .00005237  00000+0  32809-3 0  9991
2 60577  97.6730 281.9461 0004272  59.7041 300.4610 15.09795102105314
LEMUR-2-SQUIRRELCOMM    
1 60578U 24149DQ  26200.65090433  .00002982  00000+0  20080-3 0  9999
2 60578  97.6699 281.4656 0004005 305.2280  54.8572 15.07469828105293
LEMUR-2-SIERRINI        
1 60579U 24149DR  26200.79363213  .00005840  00000+0  34803-3 0  9998
2 60579  97.6829 283.5430 0006100  79.2614 280.9302 15.11564081105384
LEMUR-2-WILSON          
1 62694U 25009CP  26200.75231096  .00001093  00000+0  10444-3 0  9994
2 62694  97.7016 278.6460 0001658 297.4630  62.6423 14.95285188 82221
LEMUR-2-STAR-FOX        
1 62696U 25009CR  26200.72098013  .00003793  00000+0  28736-3 0  9995
2 62696  97.6897 282.0957 0001696  24.4402 335.6903 15.02874020 82444
LEMUR-2-ARIANNA         
1 62699U 25009CU  26200.18679380  .00003837  00000+0  29064-3 0  9994
2 62699  97.6840 281.3147 0002074  35.4388 324.6975 15.02872906 82363
LEMUR-2-ALISIA          
1 62706U 25009DB  26200.75737054  .00003729  00000+0  28005-3 0  9993
2 62706  97.6961 282.7148 0004828 116.7593 243.4126 15.03212012105057
LEMUR-2-ROUNDTRIPPER    
1 62711U 25009DG  26200.75934992  .00003857  00000+0  28156-3 0  9998
2 62711  97.7242 283.4009 0004479  55.9111 304.2540 15.04270522 82525
LEMUR-2-MYNAMEISJEFF    
1 62712U 25009DH  26200.75786487  .00003916  00000+0  28586-3 0  9996
2 62712  97.7289 283.8001 0004370  88.5252 271.6474 15.04261876 82526
