{"fetched_at":"2026-07-20T07:40:28.790Z","source":"https://celestrak.org/NORAD/elements/gp.php?GROUP=spire&FORMAT=JSON","constellation":"spire","records":[{"OBJECT_NAME":"LEMUR-2-VALHALLA","OBJECT_ID":"2024-022B","EPOCH":"2026-07-19T21:14:40.700256","CLASSIFICATION_TYPE":"U","MEAN_MOTION":15.40573549,"ECCENTRICITY":0.0008726,"INCLINATION":97.4081,"RA_OF_ASC_NODE":51.2869,"ARG_OF_PERICENTER":7.8665,"MEAN_ANOMALY":352.2717,"EPHEMERIS_TYPE":0,"NORAD_CAT_ID":58900,"ELEMENT_SET_NO":999,"REV_AT_EPOCH":13730,"BSTAR":0.00021926,"MEAN_MOTION_DOT":0.0000884,"MEAN_MOTION_DDOT":0},{"OBJECT_NAME":"LEMUR-2-CAEL","OBJECT_ID":"2024-022E","EPOCH":"2026-07-19T08:20:21.126336","CLASSIFICATION_TYPE":"U","MEAN_MOTION":15.41938041,"ECCENTRICITY":0.00066659,"INCLINATION":97.406,"RA_OF_ASC_NODE":51.7363,"ARG_OF_PERICENTER":354.0113,"MEAN_ANOMALY":6.1053,"EPHEMERIS_TYPE":0,"NORAD_CAT_ID":58903,"ELEMENT_SET_NO":999,"REV_AT_EPOCH":13729,"BSTAR":0.00022210846,"MEAN_MOTION_DOT":0.00009367,"MEAN_MOTION_DDOT":0},{"OBJECT_NAME":"LEMUR-2-JOHNNYTRUONG","OBJECT_ID":"2024-043BA","EPOCH":"2026-07-19T09:07:27.352416","CLASSIFICATION_TYPE":"U","MEAN_MOTION":15.6278465,"ECCENTRICITY":0.00038268,"INCLINATION":97.5404,"RA_OF_ASC_NODE":354.1407,"ARG_OF_PERICENTER":81.8636,"MEAN_ANOMALY":278.3056,"EPHEMERIS_TYPE":0,"NORAD_CAT_ID":59146,"ELEMENT_SET_NO":999,"REV_AT_EPOCH":13306,"BSTAR":0.00027854272,"MEAN_MOTION_DOT":0.00024963,"MEAN_MOTION_DDOT":0},{"OBJECT_NAME":"LEMUR-2-TOMATOKECHUP","OBJECT_ID":"2024-149D","EPOCH":"2026-07-19T19:16:34.763232","CLASSIFICATION_TYPE":"U","MEAN_MOTION":15.3663811,"ECCENTRICITY":0.0003431,"INCLINATION":97.3786,"RA_OF_ASC_NODE":282.9462,"ARG_OF_PERICENTER":113.5159,"MEAN_ANOMALY":246.6446,"EPHEMERIS_TYPE":0,"NORAD_CAT_ID":60471,"ELEMENT_SET_NO":999,"REV_AT_EPOCH":10717,"BSTAR":0.00016762,"MEAN_MOTION_DOT":0.00005915,"MEAN_MOTION_DDOT":0},{"OBJECT_NAME":"LEMUR-2-STELLA","OBJECT_ID":"2024-149BT","EPOCH":"2026-07-19T18:30:34.875072","CLASSIFICATION_TYPE":"U","MEAN_MOTION":15.12424995,"ECCENTRICITY":0.0001286,"INCLINATION":97.6728,"RA_OF_ASC_NODE":283.3824,"ARG_OF_PERICENTER":123.061,"MEAN_ANOMALY":237.0744,"EPHEMERIS_TYPE":0,"NORAD_CAT_ID":60533,"ELEMENT_SET_NO":999,"REV_AT_EPOCH":10542,"BSTAR":0.00034273,"MEAN_MOTION_DOT":0.00005888,"MEAN_MOTION_DDOT":0},{"OBJECT_NAME":"LEMUR-2-MARHISYAM","OBJECT_ID":"2024-149BW","EPOCH":"2026-07-19T18:20:04.983648","CLASSIFICATION_TYPE":"U","MEAN_MOTION":15.11826829,"ECCENTRICITY":0.0002256,"INCLINATION":97.6872,"RA_OF_ASC_NODE":283.8566,"ARG_OF_PERICENTER":62.3623,"MEAN_ANOMALY":297.7836,"EPHEMERIS_TYPE":0,"NORAD_CAT_ID":60536,"ELEMENT_SET_NO":999,"REV_AT_EPOCH":10540,"BSTAR":0.00029176,"MEAN_MOTION_DOT":0.00004919,"MEAN_MOTION_DDOT":0},{"OBJECT_NAME":"LEMUR-2-AHMED-ASRAR","OBJECT_ID":"2024-149DN","EPOCH":"2026-07-19T18:22:47.782848","CLASSIFICATION_TYPE":"U","MEAN_MOTION":15.13363648,"ECCENTRICITY":0.0001624,"INCLINATION":97.6999,"RA_OF_ASC_NODE":286.0796,"ARG_OF_PERICENTER":184.9138,"MEAN_ANOMALY":175.2077,"EPHEMERIS_TYPE":0,"NORAD_CAT_ID":60576,"ELEMENT_SET_NO":999,"REV_AT_EPOCH":10549,"BSTAR":0.00032372,"MEAN_MOTION_DOT":0.00005706,"MEAN_MOTION_DDOT":0},{"OBJECT_NAME":"LEMUR-2-LLOYD","OBJECT_ID":"2024-149DP","EPOCH":"2026-07-19T18:54:43.396992","CLASSIFICATION_TYPE":"U","MEAN_MOTION":15.09795102,"ECCENTRICITY":0.0004272,"INCLINATION":97.673,"RA_OF_ASC_NODE":281.9461,"ARG_OF_PERICENTER":59.7041,"MEAN_ANOMALY":300.461,"EPHEMERIS_TYPE":0,"NORAD_CAT_ID":60577,"ELEMENT_SET_NO":999,"REV_AT_EPOCH":10531,"BSTAR":0.00032809,"MEAN_MOTION_DOT":0.00005237,"MEAN_MOTION_DDOT":0},{"OBJECT_NAME":"LEMUR-2-SQUIRRELCOMM","OBJECT_ID":"2024-149DQ","EPOCH":"2026-07-19T15:37:18.134112","CLASSIFICATION_TYPE":"U","MEAN_MOTION":15.07469828,"ECCENTRICITY":0.0004005,"INCLINATION":97.6699,"RA_OF_ASC_NODE":281.4656,"ARG_OF_PERICENTER":305.228,"MEAN_ANOMALY":54.8572,"EPHEMERIS_TYPE":0,"NORAD_CAT_ID":60578,"ELEMENT_SET_NO":999,"REV_AT_EPOCH":10529,"BSTAR":0.0002008,"MEAN_MOTION_DOT":0.00002982,"MEAN_MOTION_DDOT":0},{"OBJECT_NAME":"LEMUR-2-SIERRINI","OBJECT_ID":"2024-149DR","EPOCH":"2026-07-19T19:02:49.816032","CLASSIFICATION_TYPE":"U","MEAN_MOTION":15.11564081,"ECCENTRICITY":0.00061,"INCLINATION":97.6829,"RA_OF_ASC_NODE":283.543,"ARG_OF_PERICENTER":79.2614,"MEAN_ANOMALY":280.9302,"EPHEMERIS_TYPE":0,"NORAD_CAT_ID":60579,"ELEMENT_SET_NO":999,"REV_AT_EPOCH":10538,"BSTAR":0.00034803,"MEAN_MOTION_DOT":0.0000584,"MEAN_MOTION_DDOT":0},{"OBJECT_NAME":"LEMUR-2-WILSON","OBJECT_ID":"2025-009CP","EPOCH":"2026-07-19T18:03:19.666944","CLASSIFICATION_TYPE":"U","MEAN_MOTION":14.95285188,"ECCENTRICITY":0.0001658,"INCLINATION":97.7016,"RA_OF_ASC_NODE":278.646,"ARG_OF_PERICENTER":297.463,"MEAN_ANOMALY":62.6423,"EPHEMERIS_TYPE":0,"NORAD_CAT_ID":62694,"ELEMENT_SET_NO":999,"REV_AT_EPOCH":8222,"BSTAR":0.00010444,"MEAN_MOTION_DOT":0.00001093,"MEAN_MOTION_DDOT":0},{"OBJECT_NAME":"LEMUR-2-STAR-FOX","OBJECT_ID":"2025-009CR","EPOCH":"2026-07-19T17:18:12.683232","CLASSIFICATION_TYPE":"U","MEAN_MOTION":15.0287402,"ECCENTRICITY":0.0001696,"INCLINATION":97.6897,"RA_OF_ASC_NODE":282.0957,"ARG_OF_PERICENTER":24.4402,"MEAN_ANOMALY":335.6903,"EPHEMERIS_TYPE":0,"NORAD_CAT_ID":62696,"ELEMENT_SET_NO":999,"REV_AT_EPOCH":8244,"BSTAR":0.00028736,"MEAN_MOTION_DOT":0.00003793,"MEAN_MOTION_DDOT":0},{"OBJECT_NAME":"LEMUR-2-ARIANNA","OBJECT_ID":"2025-009CU","EPOCH":"2026-07-19T04:28:58.984320","CLASSIFICATION_TYPE":"U","MEAN_MOTION":15.02872906,"ECCENTRICITY":0.00020741,"INCLINATION":97.684,"RA_OF_ASC_NODE":281.3147,"ARG_OF_PERICENTER":35.4388,"MEAN_ANOMALY":324.6975,"EPHEMERIS_TYPE":0,"NORAD_CAT_ID":62699,"ELEMENT_SET_NO":999,"REV_AT_EPOCH":8236,"BSTAR":0.00029063805,"MEAN_MOTION_DOT":0.00003837,"MEAN_MOTION_DDOT":0},{"OBJECT_NAME":"LEMUR-2-ALISIA","OBJECT_ID":"2025-009DB","EPOCH":"2026-07-19T18:10:36.814656","CLASSIFICATION_TYPE":"U","MEAN_MOTION":15.03212012,"ECCENTRICITY":0.0004828,"INCLINATION":97.6961,"RA_OF_ASC_NODE":282.7148,"ARG_OF_PERICENTER":116.7593,"MEAN_ANOMALY":243.4126,"EPHEMERIS_TYPE":0,"NORAD_CAT_ID":62706,"ELEMENT_SET_NO":999,"REV_AT_EPOCH":10505,"BSTAR":0.00028005,"MEAN_MOTION_DOT":0.00003729,"MEAN_MOTION_DDOT":0},{"OBJECT_NAME":"LEMUR-2-ROUNDTRIPPER","OBJECT_ID":"2025-009DG","EPOCH":"2026-07-19T18:13:27.833088","CLASSIFICATION_TYPE":"U","MEAN_MOTION":15.04270522,"ECCENTRICITY":0.0004479,"INCLINATION":97.7242,"RA_OF_ASC_NODE":283.4009,"ARG_OF_PERICENTER":55.9111,"MEAN_ANOMALY":304.254,"EPHEMERIS_TYPE":0,"NORAD_CAT_ID":62711,"ELEMENT_SET_NO":999,"REV_AT_EPOCH":8252,"BSTAR":0.00028156,"MEAN_MOTION_DOT":0.00003857,"MEAN_MOTION_DDOT":0},{"OBJECT_NAME":"LEMUR-2-MYNAMEISJEFF","OBJECT_ID":"2025-009DH","EPOCH":"2026-07-19T18:11:19.524768","CLASSIFICATION_TYPE":"U","MEAN_MOTION":15.04261876,"ECCENTRICITY":0.000437,"INCLINATION":97.7289,"RA_OF_ASC_NODE":283.8001,"ARG_OF_PERICENTER":88.5252,"MEAN_ANOMALY":271.6474,"EPHEMERIS_TYPE":0,"NORAD_CAT_ID":62712,"ELEMENT_SET_NO":999,"REV_AT_EPOCH":8252,"BSTAR":0.00028586,"MEAN_MOTION_DOT":0.00003916,"MEAN_MOTION_DDOT":0}]}
